{
"type": "FeatureCollection",
"name": "area",
"crs": { "type": "name", "properties": { "name": "urn:ogc:def:crs:OGC:1.3:CRS84" } },
"features": [
{ "type": "Feature", "properties": { "fid": 1, "wojewodztwo": "opolskie", "powiat": "powiat Opole", "gmina": "Opole (miasto)", "obreb": "Szczepanowice", "arkusz": null, "nr_dzialki": "2022", "teryt": "166101_1.0128.2022", "pow_m2": 4566.95, "_count": 72.0, "_sum": -6.3769004107452929, "_mean": -0.088568061260351286 }, "geometry": { "type": "Polygon", "coordinates": [ [ [ 17.907892713355263, 50.660543847482195 ], [ 17.907754736884957, 50.660582665595314 ], [ 17.907713203039574, 50.660630100567587 ], [ 17.907703664247915, 50.660662007952553 ], [ 17.907714192169191, 50.660702741548334 ], [ 17.907754421466823, 50.660743678456839 ], [ 17.9077703163024, 50.660788371948847 ], [ 17.907709576658839, 50.661037080573301 ], [ 17.907020575414812, 50.660994638976973 ], [ 17.907145033823632, 50.660859865666417 ], [ 17.9072180954971, 50.660792909935594 ], [ 17.907269086685545, 50.660715130202313 ], [ 17.907288869869191, 50.660639391753215 ], [ 17.907282755110938, 50.660552510604944 ], [ 17.907185303492653, 50.660279853985358 ], [ 17.907136745215272, 50.660117718907003 ], [ 17.907106267647677, 50.660067063281708 ], [ 17.907974678107902, 50.660144570923087 ], [ 17.907892713355263, 50.660543847482195 ] ] ] } },
{ "type": "Feature", "properties": { "fid": 2, "wojewodztwo": "opolskie", "powiat": "powiat Opole", "gmina": "Opole (miasto)", "obreb": "Szczepanowice", "arkusz": null, "nr_dzialki": "2033", "teryt": "166101_1.0128.2033", "pow_m2": 8142.25, "_count": 127.0, "_sum": 4.8317972906515934, "_mean": 0.038045647957886564 }, "geometry": { "type": "Polygon", "coordinates": [ [ [ 17.905837187137383, 50.661205415450901 ], [ 17.905866996002793, 50.661177134560234 ], [ 17.905908919699026, 50.661120132080036 ], [ 17.906367157331001, 50.660527392304409 ], [ 17.906827400376294, 50.659936157956786 ], [ 17.906834180478786, 50.659882227555315 ], [ 17.906938946293796, 50.659880300496539 ], [ 17.906993797977929, 50.659879085816421 ], [ 17.907106267647677, 50.660067063281708 ], [ 17.907136745215272, 50.660117718907003 ], [ 17.907185303492653, 50.660279853985358 ], [ 17.907282755110938, 50.660552510604944 ], [ 17.907288869869191, 50.660639391753215 ], [ 17.907269086685545, 50.660715130202313 ], [ 17.9072180954971, 50.660792909935594 ], [ 17.907145033823632, 50.660859865666417 ], [ 17.907020575414812, 50.660994638976973 ], [ 17.906845561700603, 50.66108451666156 ], [ 17.906661464162042, 50.661253628904419 ], [ 17.905837187137383, 50.661205415450901 ] ] ] } },
{ "type": "Feature", "properties": { "fid": 3, "wojewodztwo": "opolskie", "powiat": "powiat Opole", "gmina": "Opole (miasto)", "obreb": "Szczepanowice", "arkusz": null, "nr_dzialki": "1995", "teryt": "166101_1.0128.1995", "pow_m2": 1400.41, "_count": 25.0, "_sum": -3.3272569850087166, "_mean": -0.13309027940034868 }, "geometry": { "type": "Polygon", "coordinates": [ [ [ 17.90807466369856, 50.660656367676751 ], [ 17.908120123583444, 50.660408815517854 ], [ 17.908860482130915, 50.660439064223716 ], [ 17.908761565879743, 50.6606851364145 ], [ 17.90807466369856, 50.660656367676751 ] ] ] } },
{ "type": "Feature", "properties": { "fid": 4, "wojewodztwo": "opolskie", "powiat": "powiat Opole", "gmina": "Opole (miasto)", "obreb": "Szczepanowice", "arkusz": null, "nr_dzialki": "2020", "teryt": "166101_1.0128.2020", "pow_m2": 1414.3, "_count": 23.0, "_sum": -0.29957859730347991, "_mean": -0.013025156404499126 }, "geometry": { "type": "Polygon", "coordinates": [ [ [ 17.907770194255409, 50.661140563399677 ], [ 17.907733596995531, 50.661318711938392 ], [ 17.906661464162042, 50.661253628904419 ], [ 17.906845561700603, 50.66108451666156 ], [ 17.907770194255409, 50.661140563399677 ] ] ] } },
{ "type": "Feature", "properties": { "fid": 5, "wojewodztwo": "opolskie", "powiat": "powiat Opole", "gmina": "Opole (miasto)", "obreb": "Szczepanowice", "arkusz": null, "nr_dzialki": "2018", "teryt": "166101_1.0128.2018", "pow_m2": 6511.48, "_count": 100.0, "_sum": -8.9479244714602828, "_mean": -0.089479244714602835 }, "geometry": { "type": "Polygon", "coordinates": [ [ [ 17.907749040108058, 50.661319626375551 ], [ 17.907786828576242, 50.661141570024249 ], [ 17.907807658918873, 50.66104341657379 ], [ 17.907896683361209, 50.660585071567951 ], [ 17.907974678107902, 50.660144570923087 ], [ 17.908008051741827, 50.659966176258187 ], [ 17.908032173068339, 50.659835275175212 ], [ 17.908108220091943, 50.659442802808293 ], [ 17.908163347360265, 50.659152423624924 ], [ 17.90829967307576, 50.65841323899204 ], [ 17.908308388334522, 50.658368025510299 ], [ 17.908401835624915, 50.657964268765234 ], [ 17.9085320316516, 50.657357039175096 ], [ 17.90871880275478, 50.656500943639038 ], [ 17.908881432406396, 50.656499786839753 ], [ 17.908876692296296, 50.656520550333688 ], [ 17.908748871639418, 50.657084711005382 ], [ 17.908717938522528, 50.657362261798845 ], [ 17.908569383390827, 50.657901553040084 ], [ 17.908505106406832, 50.65837357418426 ], [ 17.908496585590328, 50.658418401689339 ], [ 17.908388667078576, 50.658977079810526 ], [ 17.90827090936655, 50.659529790013671 ], [ 17.908201945429767, 50.659864078462057 ], [ 17.90815697147713, 50.660080525228651 ], [ 17.908088868747615, 50.660407532257125 ], [ 17.908034781778433, 50.660654717991981 ], [ 17.907981651447763, 50.660918715976756 ], [ 17.907964790532631, 50.661006356362677 ], [ 17.907904535976982, 50.661296689729447 ], [ 17.907894804216976, 50.661354938032567 ], [ 17.907749040108058, 50.661319626375551 ] ] ] } },
{ "type": "Feature", "properties": { "fid": 6, "wojewodztwo": "opolskie", "powiat": "powiat Opole", "gmina": "Opole (miasto)", "obreb": "Szczepanowice", "arkusz": null, "nr_dzialki": "2101", "teryt": "166101_1.0128.2101", "pow_m2": 666.54, "_count": 11.0, "_sum": -0.69834249839186668, "_mean": -0.063485681671987884 }, "geometry": { "type": "Polygon", "coordinates": [ [ [ 17.907790327844857, 50.661042089055876 ], [ 17.907770194255409, 50.661140563399677 ], [ 17.906845561700603, 50.66108451666156 ], [ 17.907020575414812, 50.660994638976973 ], [ 17.907709576658839, 50.661037080573301 ], [ 17.907790327844857, 50.661042089055876 ] ] ] } },
{ "type": "Feature", "properties": { "fid": 7, "wojewodztwo": "opolskie", "powiat": "powiat Opole", "gmina": "Opole (miasto)", "obreb": "Szczepanowice", "arkusz": null, "nr_dzialki": "2023", "teryt": "166101_1.0128.2023", "pow_m2": 385.62, "_count": 6.0, "_sum": -0.67673163861036301, "_mean": -0.1127886064350605 }, "geometry": { "type": "Polygon", "coordinates": [ [ [ 17.907790327844857, 50.661042089055876 ], [ 17.907709576658839, 50.661037080573301 ], [ 17.9077703163024, 50.660788371948847 ], [ 17.907754421466823, 50.660743678456839 ], [ 17.907714192169191, 50.660702741548334 ], [ 17.907703664247915, 50.660662007952553 ], [ 17.907713203039574, 50.660630100567587 ], [ 17.907754736884957, 50.660582665595314 ], [ 17.907892713355263, 50.660543847482195 ], [ 17.907790327844857, 50.661042089055876 ] ] ] } },
{ "type": "Feature", "properties": { "fid": 8, "wojewodztwo": "opolskie", "powiat": "powiat Opole", "gmina": "Opole (miasto)", "obreb": "Szczepanowice", "arkusz": null, "nr_dzialki": "1989", "teryt": "166101_1.0128.1989", "pow_m2": 1405.37, "_count": 22.0, "_sum": 0.68674569670110941, "_mean": 0.031215713486414064 }, "geometry": { "type": "Polygon", "coordinates": [ [ [ 17.907963449183757, 50.661330808830506 ], [ 17.907983505482537, 50.661200377988969 ], [ 17.908011105053291, 50.661190600541914 ], [ 17.908012303348809, 50.661011608143333 ], [ 17.908621345317759, 50.661078793952498 ], [ 17.908544707395297, 50.661359045862447 ], [ 17.907963449183757, 50.661330808830506 ] ] ] } },
{ "type": "Feature", "properties": { "fid": 9, "wojewodztwo": "opolskie", "powiat": "powiat Opole", "gmina": "Opole (miasto)", "obreb": "Szczepanowice", "arkusz": null, "nr_dzialki": "1993", "teryt": "166101_1.0128.1993", "pow_m2": 1383.38, "_count": 23.0, "_sum": -1.160587758757174, "_mean": -0.050460337337268436 }, "geometry": { "type": "Polygon", "coordinates": [ [ [ 17.908018987894728, 50.660920273769499 ], [ 17.908026961234551, 50.660893219791326 ], [ 17.90807466369856, 50.660656367676751 ], [ 17.908761565879743, 50.6606851364145 ], [ 17.90865738489525, 50.66094693710042 ], [ 17.908018987894728, 50.660920273769499 ] ] ] } },
{ "type": "Feature", "properties": { "fid": 10, "wojewodztwo": "opolskie", "powiat": "powiat Opole", "gmina": "Opole (miasto)", "obreb": "Szczepanowice", "arkusz": null, "nr_dzialki": "1991", "teryt": "166101_1.0128.1991", "pow_m2": 557.39, "_count": 8.0, "_sum": 0.10248515056446195, "_mean": 0.012810643820557743 }, "geometry": { "type": "Polygon", "coordinates": [ [ [ 17.908621345317759, 50.661078793952498 ], [ 17.908012303348809, 50.661011608143333 ], [ 17.908008877881681, 50.660955057566355 ], [ 17.908018987894728, 50.660920273769499 ], [ 17.90865738489525, 50.66094693710042 ], [ 17.908621345317759, 50.661078793952498 ] ] ] } },
{ "type": "Feature", "properties": { "fid": 11, "wojewodztwo": "opolskie", "powiat": "powiat Opole", "gmina": "Opole (miasto)", "obreb": "Szczepanowice", "arkusz": null, "nr_dzialki": "1990", "teryt": "166101_1.0128.1990", "pow_m2": 156.23, "_count": 3.0, "_sum": -0.02026074193418026, "_mean": -0.0067535806447267532 }, "geometry": { "type": "Polygon", "coordinates": [ [ [ 17.907904535976982, 50.661296689729447 ], [ 17.907964790532631, 50.661006356362677 ], [ 17.908012303348809, 50.661011608143333 ], [ 17.908011105053291, 50.661190600541914 ], [ 17.907983505482537, 50.661200377988969 ], [ 17.907963449183757, 50.661330808830506 ], [ 17.907955953647175, 50.661330443306383 ], [ 17.907904535976982, 50.661296689729447 ] ] ] } },
{ "type": "Feature", "properties": { "fid": 12, "wojewodztwo": "opolskie", "powiat": "powiat Opole", "gmina": "Opole (miasto)", "obreb": "Szczepanowice", "arkusz": null, "nr_dzialki": "1994", "teryt": "166101_1.0128.1994", "pow_m2": 83.09, "_count": 1.3079887883607062, "_sum": -0.12698843535948215, "_mean": -0.097086791943099091 }, "geometry": { "type": "Polygon", "coordinates": [ [ [ 17.907981651447763, 50.660918715976756 ], [ 17.908034781778433, 50.660654717991981 ], [ 17.90807466369856, 50.660656367676751 ], [ 17.908026961234551, 50.660893219791326 ], [ 17.908018987894728, 50.660920273769499 ], [ 17.907981651447763, 50.660918715976756 ] ] ] } },
{ "type": "Feature", "properties": { "fid": 13, "wojewodztwo": "opolskie", "powiat": "powiat Opole", "gmina": "Opole (miasto)", "obreb": "Szczepanowice", "arkusz": null, "nr_dzialki": "2102", "teryt": "166101_1.0128.2102", "pow_m2": 1296.97, "_count": 21.0, "_sum": 0.015446859644725919, "_mean": 0.00073556474498694851 }, "geometry": { "type": "Polygon", "coordinates": [ [ [ 17.907106267647677, 50.660067063281708 ], [ 17.906993797977929, 50.659879085816421 ], [ 17.907443711212466, 50.659925445196876 ], [ 17.907511187628803, 50.659930929049999 ], [ 17.908008051741827, 50.659966176258187 ], [ 17.907974678107902, 50.660144570923087 ], [ 17.907106267647677, 50.660067063281708 ] ] ] } },
{ "type": "Feature", "properties": { "fid": 14, "wojewodztwo": "opolskie", "powiat": "powiat Opole", "gmina": "Opole (miasto)", "obreb": "Szczepanowice", "arkusz": null, "nr_dzialki": "2019", "teryt": "166101_1.0128.2019", "pow_m2": 22.72, "_count": 0.35766011082811067, "_sum": -0.012103832013995529, "_mean": -0.033841716332220675 }, "geometry": { "type": "Polygon", "coordinates": [ [ [ 17.907770194255409, 50.661140563399677 ], [ 17.907786828576242, 50.661141570024249 ], [ 17.907749040108058, 50.661319626375551 ], [ 17.907733596995531, 50.661318711938392 ], [ 17.907770194255409, 50.661140563399677 ] ] ] } },
{ "type": "Feature", "properties": { "fid": 15, "wojewodztwo": "opolskie", "powiat": "powiat Opole", "gmina": "Opole (miasto)", "obreb": "Szczepanowice", "arkusz": null, "nr_dzialki": "1997", "teryt": "166101_1.0128.1997", "pow_m2": 2074.7, "_count": 28.0, "_sum": -3.9453802779316902, "_mean": -0.14090643849756038 }, "geometry": { "type": "Polygon", "coordinates": [ [ [ 17.908120123583444, 50.660408815517854 ], [ 17.908133703092226, 50.660335466811276 ], [ 17.908175214979121, 50.660081348714627 ], [ 17.909043269299545, 50.660119338404641 ], [ 17.908860482130915, 50.660439064223716 ], [ 17.908120123583444, 50.660408815517854 ] ] ] } },
{ "type": "Feature", "properties": { "fid": 16, "wojewodztwo": "opolskie", "powiat": "powiat Opole", "gmina": "Opole (miasto)", "obreb": "Szczepanowice", "arkusz": null, "nr_dzialki": "1992", "teryt": "166101_1.0128.1992", "pow_m2": 27.43, "_count": 0.4317151153916734, "_sum": -0.032193383770526669, "_mean": -0.074570897850818205 }, "geometry": { "type": "Polygon", "coordinates": [ [ [ 17.908018987894728, 50.660920273769499 ], [ 17.908008877881681, 50.660955057566355 ], [ 17.908012303348809, 50.661011608143333 ], [ 17.907964790532631, 50.661006356362677 ], [ 17.907981651447763, 50.660918715976756 ], [ 17.908018987894728, 50.660920273769499 ] ] ] } },
{ "type": "Feature", "properties": { "fid": 17, "wojewodztwo": "opolskie", "powiat": "powiat Opole", "gmina": "Opole (miasto)", "obreb": "Szczepanowice", "arkusz": null, "nr_dzialki": "2100", "teryt": "166101_1.0128.2100", "pow_m2": 13.3, "_count": 0.20942497212702677, "_sum": -0.011537343922439327, "_mean": -0.055090583540540465 }, "geometry": { "type": "Polygon", "coordinates": [ [ [ 17.907790327844857, 50.661042089055876 ], [ 17.907807658918873, 50.66104341657379 ], [ 17.907786828576242, 50.661141570024249 ], [ 17.907770194255409, 50.661140563399677 ], [ 17.907790327844857, 50.661042089055876 ] ] ] } },
{ "type": "Feature", "properties": { "fid": 18, "wojewodztwo": "opolskie", "powiat": "powiat Opole", "gmina": "Opole (miasto)", "obreb": "Szczepanowice", "arkusz": null, "nr_dzialki": "2021", "teryt": "166101_1.0128.2021", "pow_m2": 75.51, "_count": 1.1886689665708423, "_sum": -0.14534726092005476, "_mean": -0.12227732447610119 }, "geometry": { "type": "Polygon", "coordinates": [ [ [ 17.907790327844857, 50.661042089055876 ], [ 17.907892713355263, 50.660543847482195 ], [ 17.907974678107902, 50.660144570923087 ], [ 17.907896683361209, 50.660585071567951 ], [ 17.907807658918873, 50.66104341657379 ], [ 17.907790327844857, 50.661042089055876 ] ] ] } },
{ "type": "Feature", "properties": { "fid": 19, "wojewodztwo": "opolskie", "powiat": "powiat Opole", "gmina": "Opole (miasto)", "obreb": "Szczepanowice", "arkusz": null, "nr_dzialki": "1996", "teryt": "166101_1.0128.1996", "pow_m2": 69.69, "_count": 1.0970602390257782, "_sum": -0.16390907853836367, "_mean": -0.14940754637495546 }, "geometry": { "type": "Polygon", "coordinates": [ [ [ 17.908034781778433, 50.660654717991981 ], [ 17.908088868747615, 50.660407532257125 ], [ 17.908120123583444, 50.660408815517854 ], [ 17.90807466369856, 50.660656367676751 ], [ 17.908034781778433, 50.660654717991981 ] ] ] } },
{ "type": "Feature", "properties": { "fid": 20, "wojewodztwo": "opolskie", "powiat": "powiat Opole", "gmina": "Opole (miasto)", "obreb": "Szczepanowice", "arkusz": null, "nr_dzialki": "1998", "teryt": "166101_1.0128.1998", "pow_m2": 65.73, "_count": 2.0, "_sum": -0.16965625435113907, "_mean": -0.084828127175569534 }, "geometry": { "type": "Polygon", "coordinates": [ [ [ 17.908088868747615, 50.660407532257125 ], [ 17.90815697147713, 50.660080525228651 ], [ 17.908175214979121, 50.660081348714627 ], [ 17.908133703092226, 50.660335466811276 ], [ 17.908120123583444, 50.660408815517854 ], [ 17.908088868747615, 50.660407532257125 ] ] ] } }
]
}
